<?xml version="1.0"?><gpx version="1.1" creator="graatzug"><trk><name>Graatzug Runde Barralhaus Simplon (Vorschlag)</name><trkseg><trkpt lat="46.2350030" lon="8.0143030"/><trkpt lat="46.2349410" lon="8.0144580"/><trkpt lat="46.2349010" lon="8.0144900"/><trkpt lat="46.2347680" lon="8.0145060"/><trkpt lat="46.2345400" lon="8.0145270"/><trkpt lat="46.2343860" lon="8.0144980"/><trkpt lat="46.2343320" lon="8.0144880"/><trkpt lat="46.2341810" lon="8.0144250"/><trkpt lat="46.2339840" lon="8.0143020"/><trkpt lat="46.2337220" lon="8.0140300"/><trkpt lat="46.2332750" lon="8.0135020"/><trkpt lat="46.2329680" lon="8.0131590"/><trkpt lat="46.2327230" lon="8.0128710"/><trkpt lat="46.2325270" lon="8.0126450"/><trkpt lat="46.2322600" lon="8.0124040"/><trkpt lat="46.2321410" lon="8.0124000"/><trkpt lat="46.2320060" lon="8.0124520"/><trkpt lat="46.2317970" lon="8.0125690"/><trkpt lat="46.2314920" lon="8.0126990"/><trkpt lat="46.2314150" lon="8.0126780"/><trkpt lat="46.2313170" lon="8.0126850"/><trkpt lat="46.2311300" lon="8.0127230"/><trkpt lat="46.2308760" lon="8.0127590"/><trkpt lat="46.2306720" lon="8.0127930"/><trkpt lat="46.2304410" lon="8.0128160"/><trkpt lat="46.2301670" lon="8.0128170"/><trkpt lat="46.2299180" lon="8.0129040"/><trkpt lat="46.2297950" lon="8.0129500"/><trkpt lat="46.2296980" lon="8.0129440"/><trkpt lat="46.2292700" lon="8.0128390"/><trkpt lat="46.2291230" lon="8.0127780"/><trkpt lat="46.2289310" lon="8.0126970"/><trkpt lat="46.2286790" lon="8.0125560"/><trkpt lat="46.2283690" lon="8.0123530"/><trkpt lat="46.2281810" lon="8.0122470"/><trkpt lat="46.2280550" lon="8.0122750"/><trkpt lat="46.2278440" lon="8.0125320"/><trkpt lat="46.2277220" lon="8.0126550"/><trkpt lat="46.2276490" lon="8.0128750"/><trkpt lat="46.2275620" lon="8.0130040"/><trkpt lat="46.2274600" lon="8.0130850"/><trkpt lat="46.2271800" lon="8.0132450"/><trkpt lat="46.2270250" lon="8.0134440"/><trkpt lat="46.2268160" lon="8.0139030"/><trkpt lat="46.2266380" lon="8.0142850"/><trkpt lat="46.2264510" lon="8.0145250"/><trkpt lat="46.2262690" lon="8.0147400"/><trkpt lat="46.2260550" lon="8.0149710"/><trkpt lat="46.2258180" lon="8.0152000"/><trkpt lat="46.2257780" lon="8.0152480"/><trkpt lat="46.2256280" lon="8.0154440"/><trkpt lat="46.2255900" lon="8.0154910"/><trkpt lat="46.2255610" lon="8.0155220"/><trkpt lat="46.2255360" lon="8.0155430"/><trkpt lat="46.2255120" lon="8.0155590"/><trkpt lat="46.2254870" lon="8.0155730"/><trkpt lat="46.2254660" lon="8.0155820"/><trkpt lat="46.2254460" lon="8.0154360"/><trkpt lat="46.2254430" lon="8.0154100"/><trkpt lat="46.2254400" lon="8.0153740"/><trkpt lat="46.2254410" lon="8.0153530"/><trkpt lat="46.2254430" lon="8.0153170"/><trkpt lat="46.2254570" lon="8.0151530"/><trkpt lat="46.2254590" lon="8.0151170"/><trkpt lat="46.2254590" lon="8.0150820"/><trkpt lat="46.2254570" lon="8.0150420"/><trkpt lat="46.2254530" lon="8.0150040"/><trkpt lat="46.2254460" lon="8.0149650"/><trkpt lat="46.2254370" lon="8.0149230"/><trkpt lat="46.2254260" lon="8.0148800"/><trkpt lat="46.2254120" lon="8.0148320"/><trkpt lat="46.2253980" lon="8.0147930"/><trkpt lat="46.2253860" lon="8.0147610"/><trkpt lat="46.2252690" lon="8.0145460"/><trkpt lat="46.2252700" lon="8.0143920"/><trkpt lat="46.2252470" lon="8.0142380"/><trkpt lat="46.2252960" lon="8.0141510"/><trkpt lat="46.2253060" lon="8.0141180"/><trkpt lat="46.2252730" lon="8.0140410"/><trkpt lat="46.2253420" lon="8.0136740"/><trkpt lat="46.2253890" lon="8.0135970"/><trkpt lat="46.2254970" lon="8.0134620"/><trkpt lat="46.2256300" lon="8.0132910"/><trkpt lat="46.2257040" lon="8.0132690"/><trkpt lat="46.2258410" lon="8.0130270"/><trkpt lat="46.2259440" lon="8.0129020"/><trkpt lat="46.2260440" lon="8.0129650"/><trkpt lat="46.2261740" lon="8.0129990"/><trkpt lat="46.2262170" lon="8.0129410"/><trkpt lat="46.2263500" lon="8.0129690"/><trkpt lat="46.2263950" lon="8.0130180"/><trkpt lat="46.2264780" lon="8.0131350"/><trkpt lat="46.2265370" lon="8.0131510"/><trkpt lat="46.2268010" lon="8.0128000"/><trkpt lat="46.2269220" lon="8.0127060"/><trkpt lat="46.2270580" lon="8.0127190"/><trkpt lat="46.2271900" lon="8.0126680"/><trkpt lat="46.2274070" lon="8.0124600"/><trkpt lat="46.2276540" lon="8.0122550"/><trkpt lat="46.2277320" lon="8.0121900"/><trkpt lat="46.2278570" lon="8.0120870"/><trkpt lat="46.2279890" lon="8.0119620"/><trkpt lat="46.2280880" lon="8.0119810"/><trkpt lat="46.2282070" lon="8.0120450"/><trkpt lat="46.2283040" lon="8.0121210"/><trkpt lat="46.2285320" lon="8.0122320"/><trkpt lat="46.2287790" lon="8.0123450"/><trkpt lat="46.2289620" lon="8.0123980"/><trkpt lat="46.2290960" lon="8.0123300"/><trkpt lat="46.2291380" lon="8.0122510"/><trkpt lat="46.2291270" lon="8.0121580"/><trkpt lat="46.2291390" lon="8.0119750"/><trkpt lat="46.2292410" lon="8.0119720"/><trkpt lat="46.2293640" lon="8.0119920"/><trkpt lat="46.2294080" lon="8.0119200"/><trkpt lat="46.2294360" lon="8.0119000"/><trkpt lat="46.2294610" lon="8.0119350"/><trkpt lat="46.2294740" lon="8.0119860"/><trkpt lat="46.2295230" lon="8.0120690"/><trkpt lat="46.2295870" lon="8.0121700"/><trkpt lat="46.2297220" lon="8.0123530"/><trkpt lat="46.2297920" lon="8.0124880"/><trkpt lat="46.2299630" lon="8.0125480"/><trkpt lat="46.2300000" lon="8.0125380"/><trkpt lat="46.2302250" lon="8.0126250"/><trkpt lat="46.2305070" lon="8.0127270"/><trkpt lat="46.2307310" lon="8.0127160"/><trkpt lat="46.2311080" lon="8.0126220"/><trkpt lat="46.2312180" lon="8.0126260"/><trkpt lat="46.2313170" lon="8.0126850"/><trkpt lat="46.2314150" lon="8.0126780"/><trkpt lat="46.2314920" lon="8.0126990"/><trkpt lat="46.2315140" lon="8.0127940"/><trkpt lat="46.2316300" lon="8.0127660"/><trkpt lat="46.2316940" lon="8.0128110"/><trkpt lat="46.2317090" lon="8.0128650"/><trkpt lat="46.2317760" lon="8.0129030"/><trkpt lat="46.2318380" lon="8.0129920"/><trkpt lat="46.2318870" lon="8.0129890"/><trkpt lat="46.2319350" lon="8.0130350"/><trkpt lat="46.2321880" lon="8.0131080"/><trkpt lat="46.2321400" lon="8.0131710"/><trkpt lat="46.2320600" lon="8.0131900"/><trkpt lat="46.2320630" lon="8.0132240"/><trkpt lat="46.2321840" lon="8.0132570"/><trkpt lat="46.2322470" lon="8.0133150"/><trkpt lat="46.2323830" lon="8.0133390"/><trkpt lat="46.2325820" lon="8.0135420"/><trkpt lat="46.2326150" lon="8.0136490"/><trkpt lat="46.2326950" lon="8.0137620"/><trkpt lat="46.2327400" lon="8.0138580"/><trkpt lat="46.2328020" lon="8.0138800"/><trkpt lat="46.2328270" lon="8.0139280"/><trkpt lat="46.2328980" lon="8.0139510"/><trkpt lat="46.2330000" lon="8.0140470"/><trkpt lat="46.2331200" lon="8.0141030"/><trkpt lat="46.2332270" lon="8.0142450"/><trkpt lat="46.2334040" lon="8.0144360"/><trkpt lat="46.2335430" lon="8.0146280"/><trkpt lat="46.2338530" lon="8.0149030"/><trkpt lat="46.2338850" lon="8.0150070"/><trkpt lat="46.2339320" lon="8.0151040"/><trkpt lat="46.2339850" lon="8.0151350"/><trkpt lat="46.2340430" lon="8.0152190"/><trkpt lat="46.2340640" lon="8.0153020"/><trkpt lat="46.2341060" lon="8.0153120"/><trkpt lat="46.2341390" lon="8.0153760"/><trkpt lat="46.2341980" lon="8.0154170"/><trkpt lat="46.2342340" lon="8.0154560"/><trkpt lat="46.2343220" lon="8.0154840"/><trkpt lat="46.2343890" lon="8.0155090"/><trkpt lat="46.2349410" lon="8.0155970"/><trkpt lat="46.2350820" lon="8.0156330"/><trkpt lat="46.2351950" lon="8.0157880"/><trkpt lat="46.2353330" lon="8.0161660"/><trkpt lat="46.2353810" lon="8.0162970"/><trkpt lat="46.2355100" lon="8.0165470"/><trkpt lat="46.2355860" lon="8.0168450"/><trkpt lat="46.2356050" lon="8.0170610"/><trkpt lat="46.2356070" lon="8.0172350"/><trkpt lat="46.2356460" lon="8.0173540"/><trkpt lat="46.2356550" lon="8.0175050"/><trkpt lat="46.2356770" lon="8.0176910"/><trkpt lat="46.2359620" lon="8.0177270"/><trkpt lat="46.2360830" lon="8.0177790"/><trkpt lat="46.2362590" lon="8.0179250"/><trkpt lat="46.2363430" lon="8.0180860"/><trkpt lat="46.2364330" lon="8.0183640"/><trkpt lat="46.2364530" lon="8.0184530"/><trkpt lat="46.2365120" lon="8.0185700"/><trkpt lat="46.2366320" lon="8.0186910"/><trkpt lat="46.2368000" lon="8.0189030"/><trkpt lat="46.2368370" lon="8.0189720"/><trkpt lat="46.2368930" lon="8.0190050"/><trkpt lat="46.2369370" lon="8.0190690"/><trkpt lat="46.2371000" lon="8.0192350"/><trkpt lat="46.2370980" lon="8.0193130"/><trkpt lat="46.2373020" lon="8.0194390"/><trkpt lat="46.2374620" lon="8.0195050"/><trkpt lat="46.2376370" lon="8.0196910"/><trkpt lat="46.2377940" lon="8.0198290"/><trkpt lat="46.2378760" lon="8.0198450"/><trkpt lat="46.2379300" lon="8.0198120"/><trkpt lat="46.2380530" lon="8.0196970"/><trkpt lat="46.2381120" lon="8.0196100"/><trkpt lat="46.2382050" lon="8.0195900"/><trkpt lat="46.2383540" lon="8.0194580"/><trkpt lat="46.2385500" lon="8.0193650"/><trkpt lat="46.2386150" lon="8.0193770"/><trkpt lat="46.2386470" lon="8.0193880"/><trkpt lat="46.2387290" lon="8.0194410"/><trkpt lat="46.2387610" lon="8.0194550"/><trkpt lat="46.2388490" lon="8.0194590"/><trkpt lat="46.2389360" lon="8.0194300"/><trkpt lat="46.2390260" lon="8.0193060"/><trkpt lat="46.2390850" lon="8.0191980"/><trkpt lat="46.2391030" lon="8.0189880"/><trkpt lat="46.2391390" lon="8.0188610"/><trkpt lat="46.2391990" lon="8.0186950"/><trkpt lat="46.2392690" lon="8.0185610"/><trkpt lat="46.2393070" lon="8.0184520"/><trkpt lat="46.2392980" lon="8.0182610"/><trkpt lat="46.2393410" lon="8.0180610"/><trkpt lat="46.2393680" lon="8.0178100"/><trkpt lat="46.2394210" lon="8.0177640"/><trkpt lat="46.2394680" lon="8.0177460"/><trkpt lat="46.2395230" lon="8.0177210"/><trkpt lat="46.2395730" lon="8.0176940"/><trkpt lat="46.2395800" lon="8.0176590"/><trkpt lat="46.2396070" lon="8.0175960"/><trkpt lat="46.2396340" lon="8.0174990"/><trkpt lat="46.2396410" lon="8.0174060"/><trkpt lat="46.2396430" lon="8.0172960"/><trkpt lat="46.2397060" lon="8.0171220"/><trkpt lat="46.2398230" lon="8.0170600"/><trkpt lat="46.2398690" lon="8.0171050"/><trkpt lat="46.2399040" lon="8.0171300"/><trkpt lat="46.2399930" lon="8.0172570"/><trkpt lat="46.2400580" lon="8.0173510"/><trkpt lat="46.2401220" lon="8.0174170"/><trkpt lat="46.2401900" lon="8.0174630"/><trkpt lat="46.2402150" lon="8.0175070"/><trkpt lat="46.2402660" lon="8.0176330"/><trkpt lat="46.2403500" lon="8.0177160"/><trkpt lat="46.2404140" lon="8.0176790"/><trkpt lat="46.2404850" lon="8.0176460"/><trkpt lat="46.2405580" lon="8.0176730"/><trkpt lat="46.2406310" lon="8.0177200"/><trkpt lat="46.2406770" lon="8.0178210"/><trkpt lat="46.2407350" lon="8.0179960"/><trkpt lat="46.2407750" lon="8.0181720"/><trkpt lat="46.2408570" lon="8.0183800"/><trkpt lat="46.2409210" lon="8.0187760"/><trkpt lat="46.2409670" lon="8.0189240"/><trkpt lat="46.2410860" lon="8.0193550"/><trkpt lat="46.2411590" lon="8.0195700"/><trkpt lat="46.2411720" lon="8.0196150"/><trkpt lat="46.2411860" lon="8.0197390"/><trkpt lat="46.2411800" lon="8.0198410"/><trkpt lat="46.2412400" lon="8.0199390"/><trkpt lat="46.2414920" lon="8.0202190"/><trkpt lat="46.2415610" lon="8.0202170"/><trkpt lat="46.2416050" lon="8.0201670"/><trkpt lat="46.2416640" lon="8.0200340"/><trkpt lat="46.2417490" lon="8.0199220"/><trkpt lat="46.2417790" lon="8.0199240"/><trkpt lat="46.2418030" lon="8.0199600"/><trkpt lat="46.2418790" lon="8.0199820"/><trkpt lat="46.2419300" lon="8.0200060"/><trkpt lat="46.2419620" lon="8.0200310"/><trkpt lat="46.2420110" lon="8.0200720"/><trkpt lat="46.2420700" lon="8.0201670"/><trkpt lat="46.2421860" lon="8.0202330"/><trkpt lat="46.2423230" lon="8.0202770"/><trkpt lat="46.2425230" lon="8.0203360"/><trkpt lat="46.2427020" lon="8.0204040"/><trkpt lat="46.2428340" lon="8.0205000"/><trkpt lat="46.2429910" lon="8.0206100"/><trkpt lat="46.2430230" lon="8.0205650"/><trkpt lat="46.2430370" lon="8.0206400"/><trkpt lat="46.2430560" lon="8.0206880"/><trkpt lat="46.2430740" lon="8.0206950"/><trkpt lat="46.2430890" lon="8.0206610"/><trkpt lat="46.2430900" lon="8.0206360"/><trkpt lat="46.2430860" lon="8.0205940"/><trkpt lat="46.2430880" lon="8.0205610"/><trkpt lat="46.2431020" lon="8.0204960"/><trkpt lat="46.2431290" lon="8.0204770"/><trkpt lat="46.2431640" lon="8.0204680"/><trkpt lat="46.2432480" lon="8.0204990"/><trkpt lat="46.2433040" lon="8.0205540"/><trkpt lat="46.2433630" lon="8.0205880"/><trkpt lat="46.2434090" lon="8.0205950"/><trkpt lat="46.2434480" lon="8.0206280"/><trkpt lat="46.2434900" lon="8.0206890"/><trkpt lat="46.2435320" lon="8.0207390"/><trkpt lat="46.2435780" lon="8.0208070"/><trkpt lat="46.2436500" lon="8.0208820"/><trkpt lat="46.2437070" lon="8.0208950"/><trkpt lat="46.2437460" lon="8.0209040"/><trkpt lat="46.2437890" lon="8.0209100"/><trkpt lat="46.2438470" lon="8.0208890"/><trkpt lat="46.2439070" lon="8.0208860"/><trkpt lat="46.2439310" lon="8.0208750"/><trkpt lat="46.2439720" lon="8.0208630"/><trkpt lat="46.2440190" lon="8.0208850"/><trkpt lat="46.2440940" lon="8.0209100"/><trkpt lat="46.2441370" lon="8.0209500"/><trkpt lat="46.2441600" lon="8.0209990"/><trkpt lat="46.2442070" lon="8.0210520"/><trkpt lat="46.2442370" lon="8.0211590"/><trkpt lat="46.2442580" lon="8.0212160"/><trkpt lat="46.2443060" lon="8.0213270"/><trkpt lat="46.2443300" lon="8.0214230"/><trkpt lat="46.2443700" lon="8.0214860"/><trkpt lat="46.2444220" lon="8.0215630"/><trkpt lat="46.2444940" lon="8.0216610"/><trkpt lat="46.2445440" lon="8.0216980"/><trkpt lat="46.2444980" lon="8.0215570"/><trkpt lat="46.2444510" lon="8.0213140"/><trkpt lat="46.2444110" lon="8.0210130"/><trkpt lat="46.2443760" lon="8.0208470"/><trkpt lat="46.2443100" lon="8.0206670"/><trkpt lat="46.2442210" lon="8.0205300"/><trkpt lat="46.2441480" lon="8.0204440"/><trkpt lat="46.2440740" lon="8.0203560"/><trkpt lat="46.2439400" lon="8.0201170"/><trkpt lat="46.2439280" lon="8.0200950"/><trkpt lat="46.2437800" lon="8.0198930"/><trkpt lat="46.2436610" lon="8.0198140"/><trkpt lat="46.2434380" lon="8.0197150"/><trkpt lat="46.2433670" lon="8.0196540"/><trkpt lat="46.2433250" lon="8.0195690"/><trkpt lat="46.2432110" lon="8.0193030"/><trkpt lat="46.2431750" lon="8.0192530"/><trkpt lat="46.2430880" lon="8.0191870"/><trkpt lat="46.2429140" lon="8.0190810"/><trkpt lat="46.2427510" lon="8.0189190"/><trkpt lat="46.2424990" lon="8.0187730"/><trkpt lat="46.2420320" lon="8.0186200"/><trkpt lat="46.2414050" lon="8.0184600"/><trkpt lat="46.2412670" lon="8.0183970"/><trkpt lat="46.2412080" lon="8.0183310"/><trkpt lat="46.2411920" lon="8.0182600"/><trkpt lat="46.2411810" lon="8.0181000"/><trkpt lat="46.2412080" lon="8.0174870"/><trkpt lat="46.2408920" lon="8.0167780"/><trkpt lat="46.2406300" lon="8.0159890"/><trkpt lat="46.2404960" lon="8.0157070"/><trkpt lat="46.2404230" lon="8.0155820"/><trkpt lat="46.2403580" lon="8.0155530"/><trkpt lat="46.2400290" lon="8.0156270"/><trkpt lat="46.2398510" lon="8.0157180"/><trkpt lat="46.2398480" lon="8.0156110"/><trkpt lat="46.2399150" lon="8.0153180"/><trkpt lat="46.2397880" lon="8.0151560"/><trkpt lat="46.2394890" lon="8.0150540"/><trkpt lat="46.2394000" lon="8.0148600"/><trkpt lat="46.2393290" lon="8.0146540"/><trkpt lat="46.2393190" lon="8.0144290"/><trkpt lat="46.2392550" lon="8.0144000"/><trkpt lat="46.2392100" lon="8.0142900"/><trkpt lat="46.2391720" lon="8.0140270"/><trkpt lat="46.2392220" lon="8.0136440"/><trkpt lat="46.2391880" lon="8.0134050"/><trkpt lat="46.2392170" lon="8.0131160"/><trkpt lat="46.2393110" lon="8.0129320"/><trkpt lat="46.2395000" lon="8.0127120"/><trkpt lat="46.2396090" lon="8.0125970"/><trkpt lat="46.2397090" lon="8.0125450"/><trkpt lat="46.2399050" lon="8.0126060"/><trkpt lat="46.2399780" lon="8.0125970"/><trkpt lat="46.2401650" lon="8.0122100"/><trkpt lat="46.2402140" lon="8.0121700"/><trkpt lat="46.2403820" lon="8.0123290"/><trkpt lat="46.2405950" lon="8.0124160"/><trkpt lat="46.2404360" lon="8.0122030"/><trkpt lat="46.2402860" lon="8.0119770"/><trkpt lat="46.2401910" lon="8.0118870"/><trkpt lat="46.2401050" lon="8.0118490"/><trkpt lat="46.2400080" lon="8.0119260"/><trkpt lat="46.2399230" lon="8.0119450"/><trkpt lat="46.2398160" lon="8.0118740"/><trkpt lat="46.2396860" lon="8.0117140"/><trkpt lat="46.2395330" lon="8.0113390"/><trkpt lat="46.2395120" lon="8.0111850"/><trkpt lat="46.2394640" lon="8.0110700"/><trkpt lat="46.2393680" lon="8.0109530"/><trkpt lat="46.2391400" lon="8.0107900"/><trkpt lat="46.2390690" lon="8.0107030"/><trkpt lat="46.2389720" lon="8.0105000"/><trkpt lat="46.2388970" lon="8.0104050"/><trkpt lat="46.2388270" lon="8.0102340"/><trkpt lat="46.2387640" lon="8.0100920"/><trkpt lat="46.2385620" lon="8.0099850"/><trkpt lat="46.2384970" lon="8.0099580"/><trkpt lat="46.2382860" lon="8.0099290"/><trkpt lat="46.2381790" lon="8.0099080"/><trkpt lat="46.2380070" lon="8.0098120"/><trkpt lat="46.2379520" lon="8.0097380"/><trkpt lat="46.2377950" lon="8.0094400"/><trkpt lat="46.2377210" lon="8.0092270"/><trkpt lat="46.2376410" lon="8.0090360"/><trkpt lat="46.2375250" lon="8.0088840"/><trkpt lat="46.2373720" lon="8.0087300"/><trkpt lat="46.2371980" lon="8.0087060"/><trkpt lat="46.2370530" lon="8.0087300"/><trkpt lat="46.2369190" lon="8.0087570"/><trkpt lat="46.2368140" lon="8.0088010"/><trkpt lat="46.2367280" lon="8.0088900"/><trkpt lat="46.2366230" lon="8.0090070"/><trkpt lat="46.2365290" lon="8.0090530"/><trkpt lat="46.2364500" lon="8.0091210"/><trkpt lat="46.2363950" lon="8.0093110"/><trkpt lat="46.2363990" lon="8.0094930"/><trkpt lat="46.2364450" lon="8.0096460"/><trkpt lat="46.2366120" lon="8.0099420"/><trkpt lat="46.2367030" lon="8.0101300"/><trkpt lat="46.2367220" lon="8.0102770"/><trkpt lat="46.2367390" lon="8.0106400"/><trkpt lat="46.2367560" lon="8.0109440"/><trkpt lat="46.2367550" lon="8.0111610"/><trkpt lat="46.2367110" lon="8.0115850"/><trkpt lat="46.2366750" lon="8.0117540"/><trkpt lat="46.2366200" lon="8.0118860"/><trkpt lat="46.2365630" lon="8.0120610"/><trkpt lat="46.2365030" lon="8.0124980"/><trkpt lat="46.2364780" lon="8.0125810"/><trkpt lat="46.2364010" lon="8.0126830"/><trkpt lat="46.2362780" lon="8.0127740"/><trkpt lat="46.2361170" lon="8.0128550"/><trkpt lat="46.2358010" lon="8.0129640"/><trkpt lat="46.2354020" lon="8.0131290"/><trkpt lat="46.2353090" lon="8.0132370"/><trkpt lat="46.2352080" lon="8.0134810"/><trkpt lat="46.2350860" lon="8.0139200"/><trkpt lat="46.2350030" lon="8.0143030"/><trkpt lat="46.2350671" lon="8.0140073"/><trkpt lat="46.2350030" lon="8.0143030"/></trkseg></trk></gpx>